0 COSMOS 2251 DEB
1 36636U 93036BFA 13280.76445157  .00032270  00000-0  53517-2 0  2336
2 36636 074.0166 078.2571 0007025 133.7231 226.4523 14.70048784200979
0 COSMOS 2251 DEB
1 36636U 93036BFA 13286.07175541  .00045681  00000-0  74822-2 0  2357
2 36636 074.0171 067.9553 0004974 118.9973 241.1697 14.70500801201754
0 COSMOS 2251 DEB
1 36636U 93036BFA 13286.07198076  .00033222  00000-0  54577-2 0  2347
2 36636 074.0149 067.9631 0006615 117.2468 244.1158 14.70458421201767
0 COSMOS 2251 DEB
1 36636U 93036BFA 13293.00942898  .00052663  00000-0  84805-2 0  2366
2 36636 074.0165 054.4702 0003154 083.2341 276.9190 14.71199554202773
